NORAD_CAT_ID,OBJECT_NAME,OBJECT_TYPE,EPOCH,MEAN_MOTION,ECCENTRICITY,INCLINATION,RA_OF_ASC_NODE,ARG_OF_PERICENTER,MEAN_ANOMALY,BSTAR,MEAN_MOTION_DOT,MEAN_MOTION_DDOT,TLE_LINE0,TLE_LINE1,TLE_LINE2,SEMIMAJOR_AXIS,PERIOD,APOGEE,PERIGEE,DECAYED
55277.0,STARLINK-5299,PAYLOAD,2024-01-09 20:13:17,14.98329793,0.0002903,69.9981,235.9703,271.0985,88.9841,1.3126e-05,6.4e-07,0.0,0 STARLINK-5299,1 55277U 23010J   24009.84256540  .00000064  00000-0  13126-4 0  9998,2 55277  69.9981 235.9703 0002903 271.0985  88.9841 14.98329793 54164,6950.194,96.107,574.076,570.041,0.0
55277.0,STARLINK-5299,PAYLOAD,2024-01-09 21:49:25,14.98330273,0.0002893,69.9981,235.802,271.1342,88.9486,1.9673e-05,1.42e-06,0.0,0 STARLINK-5299,1 55277U 23010J   24009.90932489  .00000142  00000-0  19673-4 0  9998,2 55277  69.9981 235.8020 0002893 271.1342  88.9486 14.98330273 54486,6950.192,96.107,574.068,570.046,0.0
55277.0,STARLINK-5299,PAYLOAD,2024-01-10 01:01:41,14.983313,0.000289,69.9982,235.4656,271.1538,88.929,3.0064e-05,2.66e-06,0.0,0 STARLINK-5299,1 55277U 23010J   24010.04284384  .00000266  00000-0  30064-4 0  9993,2 55277  69.9982 235.4656 0002890 271.1538  88.9290 14.98331300 54500,6950.189,96.107,574.062,570.045,0.0
55277.0,STARLINK-5299,PAYLOAD,2024-01-11 01:03:42,14.98331876,0.0002788,69.9985,232.9412,265.7212,94.3628,7.4832e-06,-4e-08,0.0,0 STARLINK-5299,1 55277U 23010J   24011.04424313 -.00000004  00000-0  74832-5 0  9995,2 55277  69.9985 232.9412 0002788 265.7212  94.3628 14.98331876 54345,6950.187,96.107,573.99,570.114,0.0
55277.0,STARLINK-5299,PAYLOAD,2024-01-11 21:53:27,14.98332447,0.0002771,69.9986,230.7526,267.6381,92.4461,8.3756e-06,7e-08,0.0,0 STARLINK-5299,1 55277U 23010J   24011.91212154  .00000007  00000-0  83756-5 0  9996,2 55277  69.9986 230.7526 0002771 267.6381  92.4461 14.98332447 54785,6950.185,96.107,573.976,570.124,0.0
55277.0,STARLINK-5299,PAYLOAD,2024-01-11 23:29:35,14.98333361,0.0002759,69.9986,230.5844,267.3527,92.7316,1.8787e-05,1.31e-06,0.0,0 STARLINK-5299,1 55277U 23010J   24011.97888050  .00000131  00000-0  18787-4 0  9995,2 55277  69.9986 230.5844 0002759 267.3527  92.7316 14.98333361 54790,6950.182,96.107,573.965,570.13,0.0
55277.0,STARLINK-5299,PAYLOAD,2024-01-12 18:43:12,14.9832422,0.0002602,69.999,228.5642,260.714,99.3725,-4.478e-05,-6.27e-06,0.0,0 STARLINK-5299,1 55277U 23010J   24012.78000815 -.00000627  00000-0 -44780-4 0  9994,2 55277  69.9990 228.5642 0002602 260.7140  99.3725 14.98324220 54604,6950.211,96.107,573.884,570.267,0.0
55277.0,STARLINK-5299,PAYLOAD,2024-01-12 21:55:29,14.98321765,0.0002656,69.999,228.2278,262.2557,97.83,-7.5532e-05,-9.94e-06,0.0,0 STARLINK-5299,1 55277U 23010J   24012.91353116 -.00000994  00000-0 -75532-4 0  9990,2 55277  69.9990 228.2278 0002656 262.2557  97.8300 14.98321765 54933,6950.218,96.108,573.929,570.237,0.0
55277.0,STARLINK-5299,PAYLOAD,2024-01-13 01:07:45,14.98321908,0.0002659,69.9991,227.8916,264.364,95.7216,-7.3508e-05,-9.7e-06,0.0,0 STARLINK-5299,1 55277U 23010J   24013.04705167 -.00000970  00000-0 -73508-4 0  9997,2 55277  69.9991 227.8916 0002659 264.3640  95.7216 14.98321908 54951,6950.218,96.108,573.931,570.235,0.0
55277.0,STARLINK-5299,PAYLOAD,2024-01-13 18:45:13,14.98332715,0.0002844,69.9989,226.0401,269.0958,90.9875,1.3259e-06,-7.7e-07,0.0,0 STARLINK-5299,1 55277U 23010J   24013.78140332 -.00000077  00000-0  13259-5 0  9990,2 55277  69.9989 226.0401 0002844 269.0958  90.9875 14.98332715 54752,6950.184,96.107,574.026,570.073,0.0
55277.0,STARLINK-5299,PAYLOAD,2024-01-14 13:58:49,14.9832977,0.0003047,69.9988,224.0202,271.2109,88.8701,7.7509e-05,8.32e-06,0.0,0 STARLINK-5299,1 55277U 23010J   24014.58252258  .00000832  00000-0  77509-4 0  9995,2 55277  69.9988 224.0202 0003047 271.2109  88.8701 14.98329770 55186,6950.194,96.107,574.176,569.941,0.0
55277.0,STARLINK-5299,PAYLOAD,2024-01-14 18:47:13,14.98331516,0.0003036,69.9989,223.5152,270.6958,89.3853,9.2364e-05,1.009e-05,0.0,0 STARLINK-5299,1 55277U 23010J   24014.78280080  .00001009  00000-0  92364-4 0  9994,2 55277  69.9989 223.5152 0003036 270.6958  89.3853 14.98331516 54902,6950.188,96.107,574.163,569.943,0.0
55277.0,STARLINK-5299,PAYLOAD,2024-01-14 21:59:29,14.98333111,0.0003018,69.9988,223.1784,270.6535,89.4278,0.00010835,1.2e-05,0.0,0 STARLINK-5299,1 55277U 23010J   24014.91631910  .00001200  00000-0  10835-3 0  9996,2 55277  69.9988 223.1784 0003018 270.6535  89.4278 14.98333111 55231,6950.183,96.107,574.146,569.951,0.0
55277.0,STARLINK-5299,PAYLOAD,2024-01-15 14:00:50,14.98332756,0.0002861,69.9992,221.495,269.3151,90.7681,1.0498e-05,3.2e-07,0.0,0 STARLINK-5299,1 55277U 23010J   24015.58392082  .00000032  00000-0  10498-4 0  9992,2 55277  69.9992 221.4950 0002861 269.3151  90.7681 14.98332756 55334,6950.184,96.107,574.038,570.061,0.0
55277.0,STARLINK-5299,PAYLOAD,2024-01-15 18:49:14,14.98332847,0.0002863,69.9992,220.9902,269.1849,90.8982,1.051e-05,3.2e-07,0.0,0 STARLINK-5299,1 55277U 23010J   24015.78420027  .00000032  00000-0  10510-4 0  9990,2 55277  69.9992 220.9902 0002863 269.1849  90.8982 14.98332847 55054,6950.184,96.107,574.039,570.059,0.0
55277.0,STARLINK-5299,PAYLOAD,2024-01-15 20:25:22,14.98332403,0.0002874,69.9993,220.8219,269.3274,90.7555,4.2969e-06,-4.2e-07,0.0,0 STARLINK-5299,1 55277U 23010J   24015.85096058 -.00000042  00000-0  42969-5 0  9997,2 55277  69.9993 220.8219 0002874 269.3274  90.7555 14.98332403 55379,6950.185,96.107,574.048,570.053,0.0
55277.0,STARLINK-5299,PAYLOAD,2024-01-16 14:02:51,14.98330421,0.0002792,69.9992,218.97,270.0639,90.02,-6.9752e-05,-9.25e-06,0.0,0 STARLINK-5299,1 55277U 23010J   24016.58532314 -.00000925  00000-0 -69752-4 0  9997,2 55277  69.9992 218.9700 0002792 270.0639  90.0200 14.98330421 55484,6950.192,96.107,573.997,570.116,0.0
55277.0,STARLINK-5299,PAYLOAD,2024-01-16 18:51:16,14.98329846,0.000281,69.9992,218.465,270.0956,89.9881,-7.2626e-05,-9.59e-06,0.0,0 STARLINK-5299,1 55277U 23010J   24016.78560343 -.00000959  00000-0 -72626-4 0  9993,2 55277  69.9992 218.4650 0002810 270.0956  89.9881 14.98329846 55207,6950.193,96.107,574.011,570.105,0.0
55277.0,STARLINK-5299,PAYLOAD,2024-01-16 22:03:32,14.98328005,0.0002847,69.9993,218.1285,270.48,89.6033,-9.333e-05,-1.206e-05,0.0,0 STARLINK-5299,1 55277U 23010J   24016.91912528 -.00001206  00000-0 -93330-4 0  9995,2 55277  69.9993 218.1285 0002847 270.4800  89.6033 14.98328005 55539,6950.199,96.107,574.043,570.085,0.0
55277.0,STARLINK-5299,PAYLOAD,2024-01-17 14:04:52,14.98330722,0.0002937,69.9992,216.4455,270.7955,89.2868,4.8646e-08,-9.2e-07,0.0,0 STARLINK-5299,1 55277U 23010J   24017.58672084 -.00000092  00000-0  48646-7 0  9993,2 55277  69.9992 216.4455 0002937 270.7955  89.2868 14.98330722 55634,6950.191,96.107,574.097,570.014,0.0
55277.0,STARLINK-5299,PAYLOAD,2024-01-17 18:53:16,14.98331061,0.0002932,69.9993,215.9405,271.0694,89.0129,6.5471e-06,-1.5e-07,0.0,0 STARLINK-5299,1 55277U 23010J   24017.78700038 -.00000015  00000-0  65471-5 0  9994,2 55277  69.9993 215.9405 0002932 271.0694  89.0129 14.98331061 55357,6950.19,96.107,574.092,570.017,0.0
55277.0,STARLINK-5299,PAYLOAD,2024-01-17 22:05:32,14.98331018,0.0002936,69.9993,215.6039,271.1362,88.946,6.0791e-06,-2e-07,0.0,0 STARLINK-5299,1 55277U 23010J   24017.92052036 -.00000020  00000-0  60791-5 0  9994,2 55277  69.9993 215.6039 0002936 271.1362  88.9460 14.98331018 55688,6950.19,96.107,574.095,570.014,0.0
55277.0,STARLINK-5299,PAYLOAD,2024-01-18 12:30:43,14.98346918,0.0003242,69.9987,214.0893,265.7749,94.304,0.00019989,2.294e-05,0.0,0 STARLINK-5299,1 55277U 23010J   24018.52134062  .00002294  00000-0  19989-3 0  9996,2 55277  69.9987 214.0893 0003242 265.7749  94.3040 14.98346918 55467,6950.141,96.106,574.259,569.752,0.0
55277.0,STARLINK-5299,PAYLOAD,2024-01-18 14:06:51,14.98352107,0.0002747,69.9983,213.9234,257.0291,103.0561,0.00022078,2.544e-05,0.0,0 STARLINK-5299,1 55277U 23010J   24018.58809663  .00002544  00000-0  22078-3 0  9999,2 55277  69.9983 213.9234 0002747 257.0291 103.0561 14.98352107 55783,6950.125,96.106,573.899,570.08,0.0
55277.0,STARLINK-5299,PAYLOAD,2024-01-18 18:55:17,14.98331126,0.0003033,69.9993,213.4151,271.8779,88.2032,5.2708e-05,5.36e-06,0.0,0 STARLINK-5299,1 55277U 23010J   24018.78839288  .00000536  00000-0  52708-4 0  9990,2 55277  69.9993 213.4151 0003033 271.8779  88.2032 14.98331126 55506,6950.189,96.107,574.162,569.946,0.0
55277.0,STARLINK-5299,PAYLOAD,2024-01-18 22:07:33,14.98329117,0.0003258,69.9988,213.0784,275.1934,84.8853,4.4196e-06,-4e-07,0.0,0 STARLINK-5299,1 55277U 23010J   24018.92191496 -.00000040  00000-0  44196-5 0  9992,2 55277  69.9988 213.0784 0003258 275.1934  84.8853 14.98329117 55833,6950.196,96.107,574.325,569.796,0.0
55277.0,STARLINK-5299,PAYLOAD,2024-01-19 12:32:46,14.98328745,0.0003641,69.9979,211.5626,277.4188,82.6558,-0.00011809,-1.502e-05,0.0,0 STARLINK-5299,1 55277U 23010J   24019.52275917 -.00001502  00000-0 -11809-3 0  9998,2 55277  69.9979 211.5626 0003641 277.4188  82.6558 14.98328745 55613,6950.197,96.107,574.592,569.531,0.0
55277.0,STARLINK-5299,PAYLOAD,2024-01-19 14:08:54,14.98328023,0.0002898,69.9997,211.3951,271.5888,88.4939,-3.9483e-05,-5.64e-06,0.0,0 STARLINK-5299,1 55277U 23010J   24019.58951767 -.00000564  00000-0 -39483-4 0  9994,2 55277  69.9997 211.3951 0002898 271.5888  88.4939 14.98328023 55938,6950.199,96.107,574.078,570.05,0.0
55277.0,STARLINK-5299,PAYLOAD,2024-01-19 22:09:34,14.98328256,0.0002999,69.9995,210.5534,273.1856,86.896,-4.3936e-05,-6.17e-06,0.0,0 STARLINK-5299,1 55277U 23010J   24019.92331755 -.00000617  00000-0 -43936-4 0  9998,2 55277  69.9995 210.5534 0002999 273.1856  86.8960 14.98328256 55988,6950.198,96.107,574.148,569.979,0.0
55277.0,STARLINK-5299,PAYLOAD,2024-01-20 14:10:55,14.98344306,0.0003145,69.9995,208.8701,269.5584,90.5215,-0.00035369,-4.312e-05,0.0,0 STARLINK-5299,1 55277U 23010J   24020.59091485 -.00004312  00000-0 -35369-3 0  9992,2 55277  69.9995 208.8701 0003145 269.5584  90.5215 14.98344306 56086,6950.149,96.106,574.199,569.828,0.0
